{"type": "FeatureCollection", "features": [ {"type": "Feature", "properties": {"norad_id": 66516, "name": "STARLINK-35924", "group": "last-30-days", "lat": -23.821165476886485, "lon": -88.73666643921072, "alt_km": 425.09623954703875, "timestamp": "2025-12-11T05:00:25.074805+00:00", "meta": {"OBJECT_NAME": "STARLINK-35924", "OBJECT_ID": "2025-265A", "EPOCH": "2025-12-10T22:00:03.000096", "MEAN_MOTION": 15.49049403, "ECCENTRICITY": 0.00015472, "INCLINATION": 43.0001, "RA_OF_ASC_NODE": 64.6855, "ARG_OF_PERICENTER": 262.7653, "MEAN_ANOMALY": 124.3711, "EPHEMERIS_TYPE": 0, "CLASSIFICATION_TYPE": "U", "NORAD_CAT_ID": 66516, "ELEMENT_SET_NO": 999, "REV_AT_EPOCH": 468, "BSTAR": -0.044230445, "MEAN_MOTION_DOT": -0.0217212, "MEAN_MOTION_DDOT": 0}, "tle": {"line1": "1 66516U 25265A   25344.91670139 -.02172120  00000+0 -44230-1 0  9998", "line2": "2 66516  43.0001  64.6855 0001547 262.7653 124.3711 15.49049403  4682"}}, "geometry": {"type": "Point", "coordinates": [-88.73666643921072, -23.821165476886485]}}, {"type": "Feature", "properties": {"norad_id": 66517, "name": "STARLINK-35937", "group": "last-30-days", "lat": -26.993582290639022, "lon": -83.89299172212091, "alt_km": 416.8263847026319, "timestamp": "2025-12-11T05:00:25.074815+00:00", "meta": {"OBJECT_NAME": "STARLINK-35937", "OBJECT_ID": "2025-265B", "EPOCH": "2025-12-10T22:00:03.000096", "MEAN_MOTION": 15.5065282, "ECCENTRICITY": 0.00017339, "INCLINATION": 43.0001, "RA_OF_ASC_NODE": 64.6784, "ARG_OF_PERICENTER": 268.2144, "MEAN_ANOMALY": 121.9631, "EPHEMERIS_TYPE": 0, "CLASSIFICATION_TYPE": "U", "NORAD_CAT_ID": 66517, "ELEMENT_SET_NO": 999, "REV_AT_EPOCH": 470, "BSTAR": -0.002913052, "MEAN_MOTION_DOT": -0.00168068, "MEAN_MOTION_DDOT": 0}, "tle": {"line1": "1 66517U 25265B   25344.91670139 -.00168068  00000+0 -29131-2 0  9997", "line2": "2 66517  43.0001  64.6784 0001733 268.2144 121.9631 15.50652820  4709"}}, "geometry": {"type": "Point", "coordinates": [-83.89299172212091, -26.993582290639022]}}, {"type": "Feature", "properties": {"norad_id": 66518, "name": "STARLINK-35962", "group": "last-30-days", "lat": -28.066368079885333, "lon": -82.1318889597078, "alt_km": 417.05271860446464, "timestamp": "2025-12-11T05:00:25.074825+00:00", "meta": {"OBJECT_NAME": "STARLINK-35962", "OBJECT_ID": "2025-265C", "EPOCH": "2025-12-10T22:00:03.000096", "MEAN_MOTION": 15.50561539, "ECCENTRICITY": 0.00014828, "INCLINATION": 43.0001, "RA_OF_ASC_NODE": 64.6729, "ARG_OF_PERICENTER": 274.3291, "MEAN_ANOMALY": 117.7916, "EPHEMERIS_TYPE": 0, "CLASSIFICATION_TYPE": "U", "NORAD_CAT_ID": 66518, "ELEMENT_SET_NO": 999, "REV_AT_EPOCH": 470, "BSTAR": -1.8908651e-05, "MEAN_MOTION_DOT": -1.45e-05, "MEAN_MOTION_DDOT": 0}, "tle": {"line1": "1 66518U 25265C   25344.91670139 -.00001450  00000+0 -18909-4 0  9992", "line2": "2 66518  43.0001  64.6729 0001482 274.3291 117.7916 15.50561539  4706"}}, "geometry": {"type": "Point", "coordinates": [-82.1318889597078, -28.066368079885333]}}, {"type": "Feature", "properties": {"norad_id": 66519, "name": "STARLINK-35931", "group": "last-30-days", "lat": -29.12786858223592, "lon": -80.3147058852769, "alt_km": 416.8418508724317, "timestamp": "2025-12-11T05:00:25.074837+00:00", "meta": {"OBJECT_NAME": "STARLINK-35931", "OBJECT_ID": "2025-265D", "EPOCH": "2025-12-10T22:00:03.000096", "MEAN_MOTION": 15.50618759, "ECCENTRICITY": 0.00019897, "INCLINATION": 43.0002, "RA_OF_ASC_NODE": 64.6679, "ARG_OF_PERICENTER": 271.1713, "MEAN_ANOMALY": 122.8484, "EPHEMERIS_TYPE": 0, "CLASSIFICATION_TYPE": "U", "NORAD_CAT_ID": 66519, "ELEMENT_SET_NO": 999, "REV_AT_EPOCH": 470, "BSTAR": -0.0019052291, "MEAN_MOTION_DOT": -0.00110709, "MEAN_MOTION_DDOT": 0}, "tle": {"line1": "1 66519U 25265D   25344.91670139 -.00110709  00000+0 -19052-2 0  9999", "line2": "2 66519  43.0002  64.6679 0001989 271.1713 122.8484 15.50618759  4702"}}, "geometry": {"type": "Point", "coordinates": [-80.3147058852769, -29.12786858223592]}}, {"type": "Feature", "properties": {"norad_id": 66520, "name": "STARLINK-35952", "group": "last-30-days", "lat": -30.16292407684504, "lon": -78.46213052187773, "alt_km": 417.16822984355895, "timestamp": "2025-12-11T05:00:25.074848+00:00", "meta": {"OBJECT_NAME": "STARLINK-35952", "OBJECT_ID": "2025-265E", "EPOCH": "2025-12-10T22:00:03.000096", "MEAN_MOTION": 15.5062023, "ECCENTRICITY": 0.00015259, "INCLINATION": 43.0002, "RA_OF_ASC_NODE": 64.6629, "ARG_OF_PERICENTER": 276.5841, "MEAN_ANOMALY": 119.351, "EPHEMERIS_TYPE": 0, "CLASSIFICATION_TYPE": "U", "NORAD_CAT_ID": 66520, "ELEMENT_SET_NO": 999, "REV_AT_EPOCH": 470, "BSTAR": -0.0019269724, "MEAN_MOTION_DOT": -0.00111951, "MEAN_MOTION_DDOT": 0}, "tle": {"line1": "1 66520U 25265E   25344.91670139 -.00111951  00000+0 -19270-2 0  9993", "line2": "2 66520  43.0002  64.6629 0001525 276.5841 119.3510 15.50620230  4704"}}, "geometry": {"type": "Point", "coordinates": [-78.46213052187773, -30.16292407684504]}}, {"type": "Feature", "properties": {"norad_id": 66521, "name": "STARLINK-35915", "group": "last-30-days", "lat": -31.170275058718733, "lon": -76.57218599622693, "alt_km": 417.0791401516726, "timestamp": "2025-12-11T05:00:25.074858+00:00", "meta": {"OBJECT_NAME": "STARLINK-35915", "OBJECT_ID": "2025-265F", "EPOCH": "2025-12-10T22:00:03.000096", "MEAN_MOTION": 15.50613905, "ECCENTRICITY": 0.00014699, "INCLINATION": 43.0001, "RA_OF_ASC_NODE": 64.6581, "ARG_OF_PERICENTER": 263.656, "MEAN_ANOMALY": 134.1975, "EPHEMERIS_TYPE": 0, "CLASSIFICATION_TYPE": "U", "NORAD_CAT_ID": 66521, "ELEMENT_SET_NO": 999, "REV_AT_EPOCH": 470, "BSTAR": -0.0017798651, "MEAN_MOTION_DOT": -0.00103517, "MEAN_MOTION_DDOT": 0}, "tle": {"line1": "1 66521U 25265F   25344.91670139 -.00103517  00000+0 -17799-2 0  9997", "line2": "2 66521  43.0001  64.6581 0001469 263.6560 134.1975 15.50613905  4704"}}, "geometry": {"type": "Point", "coordinates": [-76.57218599622693, -31.170275058718733]}}, {"type": "Feature", "properties": {"norad_id": 66522, "name": "STARLINK-35946", "group": "last-30-days", "lat": -32.151305845177, "lon": -74.63831405627728, "alt_km": 417.0501992167301, "timestamp": "2025-12-11T05:00:25.074871+00:00", "meta": {"OBJECT_NAME": "STARLINK-35946", "OBJECT_ID": "2025-265G", "EPOCH": "2025-12-10T22:00:03.000096", "MEAN_MOTION": 15.50629451, "ECCENTRICITY": 0.00017459, "INCLINATION": 43, "RA_OF_ASC_NODE": 64.653, "ARG_OF_PERICENTER": 270.2128, "MEAN_ANOMALY": 129.5584, "EPHEMERIS_TYPE": 0, "CLASSIFICATION_TYPE": "U", "NORAD_CAT_ID": 66522, "ELEMENT_SET_NO": 999, "REV_AT_EPOCH": 470, "BSTAR": -0.0022666584, "MEAN_MOTION_DOT": -0.00131349, "MEAN_MOTION_DDOT": 0}, "tle": {"line1": "1 66522U 25265G   25344.91670139 -.00131349  00000+0 -22667-2 0  9992", "line2": "2 66522  43.0000  64.6530 0001745 270.2128 129.5584 15.50629451  4706"}}, "geometry": {"type": "Point", "coordinates": [-74.63831405627728, -32.151305845177]}}, {"type": "Feature", "properties": {"norad_id": 66523, "name": "STARLINK-35969", "group": "last-30-days", "lat": -33.07309534852138, "lon": -72.72519968057448, "alt_km": 416.74907423156037, "timestamp": "2025-12-11T05:00:25.074881+00:00", "meta": {"OBJECT_NAME": "STARLINK-35969", "OBJECT_ID": "2025-265H", "EPOCH": "2025-12-10T22:00:03.000096", "MEAN_MOTION": 15.50553803, "ECCENTRICITY": 0.00030659, "INCLINATION": 43.0003, "RA_OF_ASC_NODE": 64.6483, "ARG_OF_PERICENTER": 278.8317, "MEAN_ANOMALY": 122.8813, "EPHEMERIS_TYPE": 0, "CLASSIFICATION_TYPE": "U", "NORAD_CAT_ID": 66523, "ELEMENT_SET_NO": 999, "REV_AT_EPOCH": 470, "BSTAR": -0.0015554546, "MEAN_MOTION_DOT": -0.00090483, "MEAN_MOTION_DDOT": 0}, "tle": {"line1": "1 66523U 25265H   25344.91670139 -.00090483  00000+0 -15555-2 0  9994", "line2": "2 66523  43.0003  64.6483 0003065 278.8317 122.8813 15.50553803  4706"}}, "geometry": {"type": "Point", "coordinates": [-72.72519968057448, -33.07309534852138]}}, {"type": "Feature", "properties": {"norad_id": 66524, "name": "STARLINK-35687", "group": "last-30-days", "lat": -33.43117263662237, "lon": -71.95447919753548, "alt_km": 422.06786182000724, "timestamp": "2025-12-11T05:00:25.074891+00:00", "meta": {"OBJECT_NAME": "STARLINK-35687", "OBJECT_ID": "2025-265J", "EPOCH": "2025-12-10T22:00:03.000096", "MEAN_MOTION": 15.50245072, "ECCENTRICITY": 0.00018595, "INCLINATION": 43.0004, "RA_OF_ASC_NODE": 64.6434, "ARG_OF_PERICENTER": 278.2791, "MEAN_ANOMALY": 125.1998, "EPHEMERIS_TYPE": 0, "CLASSIFICATION_TYPE": "U", "NORAD_CAT_ID": 66524, "ELEMENT_SET_NO": 999, "REV_AT_EPOCH": 470, "BSTAR": -0.042275435, "MEAN_MOTION_DOT": -0.0216757, "MEAN_MOTION_DDOT": 0}, "tle": {"line1": "1 66524U 25265J   25344.91670139 -.02167570  00000+0 -42275-1 0  9997", "line2": "2 66524  43.0004  64.6434 0001859 278.2791 125.1998 15.50245072  4709"}}, "geometry": {"type": "Point", "coordinates": [-71.95447919753548, -33.43117263662237]}}, {"type": "Feature", "properties": {"norad_id": 66525, "name": "STARLINK-35975", "group": "last-30-days", "lat": -34.898625185885784, "lon": -68.60115450898549, "alt_km": 417.1257718540264, "timestamp": "2025-12-11T05:00:25.074901+00:00", "meta": {"OBJECT_NAME": "STARLINK-35975", "OBJECT_ID": "2025-265K", "EPOCH": "2025-12-10T22:00:03.000096", "MEAN_MOTION": 15.506247, "ECCENTRICITY": 0.00016855, "INCLINATION": 43.0002, "RA_OF_ASC_NODE": 64.6387, "ARG_OF_PERICENTER": 267.0057, "MEAN_ANOMALY": 138.5142, "EPHEMERIS_TYPE": 0, "CLASSIFICATION_TYPE": "U", "NORAD_CAT_ID": 66525, "ELEMENT_SET_NO": 999, "REV_AT_EPOCH": 470, "BSTAR": -0.0020812361, "MEAN_MOTION_DOT": -0.00120773, "MEAN_MOTION_DDOT": 0}, "tle": {"line1": "1 66525U 25265K   25344.91670139 -.00120773  00000+0 -20812-2 0  9994", "line2": "2 66525  43.0002  64.6387 0001685 267.0057 138.5142 15.50624700  4701"}}, "geometry": {"type": "Point", "coordinates": [-68.60115450898549, -34.898625185885784]}}]}